{
"type": "FeatureCollection",
"name": "sample_3075_sentinel2_footprint",
"crs": { "type": "name", "properties": { "name": "urn:ogc:def:crs:OGC:1.3:CRS84" } },
"features": [
{ "type": "Feature", "properties": { "sample_index": 3075, "source": "MMEarth Sentinel-2" }, "geometry": { "type": "Polygon", "coordinates": [ [ [ 79.786435563595703, 11.425178095771784 ], [ 79.798166986943343, 11.425226426370191 ], [ 79.798215713257079, 11.413652985304461 ], [ 79.786484765257285, 11.41360470493318 ], [ 79.786435563595703, 11.425178095771784 ] ] ] } }
]
}
